CCSDS_OMM_VERS = 2.0
CREATION_DATE  = 
ORIGINATOR     = 

OBJECT_NAME    = IDEFIX & ARIANE 42P R/B
OBJECT_ID      = 2002-021B
CENTER_NAME    = EARTH
REF_FRAME      = TEME
TIME_SYSTEM    = UTC
MEAN_ELEMENT_THEORY = SGP/SGP4

EPOCH          = 2026-02-09T19:22:36.236640
MEAN_MOTION    = 14.31005896
ECCENTRICITY   = .00106583
INCLINATION    = 98.5841
RA_OF_ASC_NODE = 339.7521
ARG_OF_PERICENTER = 270.5320
MEAN_ANOMALY   = 89.4642

EPHEMERIS_TYPE = 0
CLASSIFICATION_TYPE = U
NORAD_CAT_ID   = 27422
ELEMENT_SET_NO = 999
REV_AT_EPOCH   = 24003
BSTAR          = .15105872E-3
MEAN_MOTION_DOT = .354E-5
MEAN_MOTION_DDOT = 0

CCSDS_OMM_VERS = 2.0
CREATION_DATE  = 
ORIGINATOR     = 

OBJECT_NAME    = AQUA
OBJECT_ID      = 2002-022A
CENTER_NAME    = EARTH
REF_FRAME      = TEME
TIME_SYSTEM    = UTC
MEAN_ELEMENT_THEORY = SGP/SGP4

EPOCH          = 2026-02-09T21:30:16.678368
MEAN_MOTION    = 14.61907160
ECCENTRICITY   = .00014709
INCLINATION    = 98.4124
RA_OF_ASC_NODE = 7.7661
ARG_OF_PERICENTER = 52.3826
MEAN_ANOMALY   = 4.4999

EPHEMERIS_TYPE = 0
CLASSIFICATION_TYPE = U
NORAD_CAT_ID   = 27424
ELEMENT_SET_NO = 999
REV_AT_EPOCH   = 26467
BSTAR          = .25527967E-3
MEAN_MOTION_DOT = .1228E-4
MEAN_MOTION_DDOT = 0

CCSDS_OMM_VERS = 2.0
CREATION_DATE  = 
ORIGINATOR     = 

OBJECT_NAME    = CZ-4B R/B
OBJECT_ID      = 2002-024C
CENTER_NAME    = EARTH
REF_FRAME      = TEME
TIME_SYSTEM    = UTC
MEAN_ELEMENT_THEORY = SGP/SGP4

EPOCH          = 2026-02-09T18:57:04.375872
MEAN_MOTION    = 14.14542473
ECCENTRICITY   = .00511584
INCLINATION    = 98.8902
RA_OF_ASC_NODE = 94.3284
ARG_OF_PERICENTER = 102.1562
MEAN_ANOMALY   = 11.9179

EPHEMERIS_TYPE = 0
CLASSIFICATION_TYPE = U
NORAD_CAT_ID   = 27432
ELEMENT_SET_NO = 999
REV_AT_EPOCH   = 22529
BSTAR          = .44371607E-4
MEAN_MOTION_DOT = .42E-6
MEAN_MOTION_DDOT = 0

CCSDS_OMM_VERS = 2.0
CREATION_DATE  = 
ORIGINATOR     = 

OBJECT_NAME    = MIDORI II (ADEOS-II)
OBJECT_ID      = 2002-056A
CENTER_NAME    = EARTH
REF_FRAME      = TEME
TIME_SYSTEM    = UTC
MEAN_ELEMENT_THEORY = SGP/SGP4

EPOCH          = 2026-02-09T20:55:05.550528
MEAN_MOTION    = 14.29263883
ECCENTRICITY   = .00021591
INCLINATION    = 98.7719
RA_OF_ASC_NODE = 359.1663
ARG_OF_PERICENTER = 81.7844
MEAN_ANOMALY   = 278.3582

EPHEMERIS_TYPE = 0
CLASSIFICATION_TYPE = U
NORAD_CAT_ID   = 27597
ELEMENT_SET_NO = 999
REV_AT_EPOCH   = 20632
BSTAR          = .16983475E-3
MEAN_MOTION_DOT = .387E-5
MEAN_MOTION_DDOT = 0

CCSDS_OMM_VERS = 2.0
CREATION_DATE  = 
ORIGINATOR     = 

OBJECT_NAME    = H-2A R/B
OBJECT_ID      = 2002-056E
CENTER_NAME    = EARTH
REF_FRAME      = TEME
TIME_SYSTEM    = UTC
MEAN_ELEMENT_THEORY = SGP/SGP4

EPOCH          = 2026-02-09T22:18:54.873792
MEAN_MOTION    = 14.33740968
ECCENTRICITY   = .00690738
INCLINATION    = 98.3150
RA_OF_ASC_NODE = 2.3610
ARG_OF_PERICENTER = 243.9681
MEAN_ANOMALY   = 166.1381

EPHEMERIS_TYPE = 0
CLASSIFICATION_TYPE = U
NORAD_CAT_ID   = 27601
ELEMENT_SET_NO = 999
REV_AT_EPOCH   = 21013
BSTAR          = .14425071E-3
MEAN_MOTION_DOT = .369E-5
MEAN_MOTION_DDOT = 0

CCSDS_OMM_VERS = 2.0
CREATION_DATE  = 
ORIGINATOR     = 

OBJECT_NAME    = CZ-4B R/B
OBJECT_ID      = 2003-049C
CENTER_NAME    = EARTH
REF_FRAME      = TEME
TIME_SYSTEM    = UTC
MEAN_ELEMENT_THEORY = SGP/SGP4

EPOCH          = 2026-02-09T22:40:44.320224
MEAN_MOTION    = 14.54989567
ECCENTRICITY   = .00474006
INCLINATION    = 98.6849
RA_OF_ASC_NODE = 34.7682
ARG_OF_PERICENTER = 317.4883
MEAN_ANOMALY   = 42.2646

EPHEMERIS_TYPE = 0
CLASSIFICATION_TYPE = U
NORAD_CAT_ID   = 28059
ELEMENT_SET_NO = 999
REV_AT_EPOCH   = 18256
BSTAR          = .14187355E-3
MEAN_MOTION_DOT = .568E-5
MEAN_MOTION_DDOT = 0

CCSDS_OMM_VERS = 2.0
CREATION_DATE  = 
ORIGINATOR     = 

OBJECT_NAME    = CZ-2C R/B
OBJECT_ID      = 2004-012C
CENTER_NAME    = EARTH
REF_FRAME      = TEME
TIME_SYSTEM    = UTC
MEAN_ELEMENT_THEORY = SGP/SGP4

EPOCH          = 2026-02-09T21:13:49.832256
MEAN_MOTION    = 15.61333205
ECCENTRICITY   = .00158424
INCLINATION    = 97.7303
RA_OF_ASC_NODE = 103.6059
ARG_OF_PERICENTER = 56.1056
MEAN_ANOMALY   = 304.1705

EPHEMERIS_TYPE = 0
CLASSIFICATION_TYPE = U
NORAD_CAT_ID   = 28222
ELEMENT_SET_NO = 999
REV_AT_EPOCH   = 19993
BSTAR          = .57687252E-3
MEAN_MOTION_DOT = .49422E-3
MEAN_MOTION_DDOT = 0

CCSDS_OMM_VERS = 2.0
CREATION_DATE  = 
ORIGINATOR     = 

OBJECT_NAME    = SL-16 R/B
OBJECT_ID      = 2004-021B
CENTER_NAME    = EARTH
REF_FRAME      = TEME
TIME_SYSTEM    = UTC
MEAN_ELEMENT_THEORY = SGP/SGP4

EPOCH          = 2026-02-09T22:47:44.092032
MEAN_MOTION    = 14.14590410
ECCENTRICITY   = .00029861
INCLINATION    = 70.9997
RA_OF_ASC_NODE = 290.7100
ARG_OF_PERICENTER = 79.1342
MEAN_ANOMALY   = 281.0116

EPHEMERIS_TYPE = 0
CLASSIFICATION_TYPE = U
NORAD_CAT_ID   = 28353
ELEMENT_SET_NO = 999
REV_AT_EPOCH   = 11891
BSTAR          = .11053574E-3
MEAN_MOTION_DOT = .165E-5
MEAN_MOTION_DDOT = 0

CCSDS_OMM_VERS = 2.0
CREATION_DATE  = 
ORIGINATOR     = 

OBJECT_NAME    = CZ-4B R/B
OBJECT_ID      = 2004-035C
CENTER_NAME    = EARTH
REF_FRAME      = TEME
TIME_SYSTEM    = UTC
MEAN_ELEMENT_THEORY = SGP/SGP4

EPOCH          = 2026-02-09T15:12:12.372192
MEAN_MOTION    = 15.28541757
ECCENTRICITY   = .0034101
INCLINATION    = 97.3549
RA_OF_ASC_NODE = 75.2178
ARG_OF_PERICENTER = 69.4243
MEAN_ANOMALY   = 291.0649

EPHEMERIS_TYPE = 0
CLASSIFICATION_TYPE = U
NORAD_CAT_ID   = 28415
ELEMENT_SET_NO = 999
REV_AT_EPOCH   = 17562
BSTAR          = .31529E-3
MEAN_MOTION_DOT = .8834E-4
MEAN_MOTION_DDOT = 0

CCSDS_OMM_VERS = 2.0
CREATION_DATE  = 
ORIGINATOR     = 

OBJECT_NAME    = CZ-2C R/B
OBJECT_ID      = 2004-046B
CENTER_NAME    = EARTH
REF_FRAME      = TEME
TIME_SYSTEM    = UTC
MEAN_ELEMENT_THEORY = SGP/SGP4

EPOCH          = 2026-02-09T18:55:29.327232
MEAN_MOTION    = 14.26982356
ECCENTRICITY   = .01383381
INCLINATION    = 98.1994
RA_OF_ASC_NODE = 317.5054
ARG_OF_PERICENTER = 237.1651
MEAN_ANOMALY   = 121.6149

EPHEMERIS_TYPE = 0
CLASSIFICATION_TYPE = U
NORAD_CAT_ID   = 28480
ELEMENT_SET_NO = 999
REV_AT_EPOCH   = 10452
BSTAR          = .74942439E-4
MEAN_MOTION_DOT = .159E-5
MEAN_MOTION_DDOT = 0

CCSDS_OMM_VERS = 2.0
CREATION_DATE  = 
ORIGINATOR     = 

OBJECT_NAME    = ARIANE 5 R/B
OBJECT_ID      = 2004-049H
CENTER_NAME    = EARTH
REF_FRAME      = TEME
TIME_SYSTEM    = UTC
MEAN_ELEMENT_THEORY = SGP/SGP4

EPOCH          = 2026-02-09T22:38:59.478144
MEAN_MOTION    = 14.85209246
ECCENTRICITY   = .00854942
INCLINATION    = 98.2583
RA_OF_ASC_NODE = 208.3716
ARG_OF_PERICENTER = 81.2009
MEAN_ANOMALY   = 279.8875

EPHEMERIS_TYPE = 0
CLASSIFICATION_TYPE = U
NORAD_CAT_ID   = 28499
ELEMENT_SET_NO = 999
REV_AT_EPOCH   = 14167
BSTAR          = .12721953E-3
MEAN_MOTION_DOT = .11E-4
MEAN_MOTION_DDOT = 0

CCSDS_OMM_VERS = 2.0
CREATION_DATE  = 
ORIGINATOR     = 

OBJECT_NAME    = CZ-2D R/B
OBJECT_ID      = 2005-024B
CENTER_NAME    = EARTH
REF_FRAME      = TEME
TIME_SYSTEM    = UTC
MEAN_ELEMENT_THEORY = SGP/SGP4

EPOCH          = 2026-02-09T14:13:45.496416
MEAN_MOTION    = 15.57680167
ECCENTRICITY   = .0007488
INCLINATION    = 97.3623
RA_OF_ASC_NODE = 54.7641
ARG_OF_PERICENTER = 114.5274
MEAN_ANOMALY   = 245.6763

EPHEMERIS_TYPE = 0
CLASSIFICATION_TYPE = U
NORAD_CAT_ID   = 28738
ELEMENT_SET_NO = 999
REV_AT_EPOCH   = 13540
BSTAR          = .51261E-3
MEAN_MOTION_DOT = .37999E-3
MEAN_MOTION_DDOT = 0

