IDEFIX & ARIANE 42P R/B 
1 27422U 02021B   26040.80736385  .00000354  00000+0  15106-3 0  9991
2 27422  98.5841 339.7521 0010658 270.5320  89.4642 14.31005896240032
AQUA                    
1 27424U 02022A   26040.89602637  .00001228  00000+0  25528-3 0  9995
2 27424  98.4124   7.7661 0001470  52.3826   4.4999 14.61907160264679
CZ-4B R/B               
1 27432U 02024C   26040.78963398  .00000042  00000+0  44372-4 0  9990
2 27432  98.8902  94.3284 0051158 102.1562  11.9179 14.14542473225296
MIDORI II (ADEOS-II)    
1 27597U 02056A   26040.87159202  .00000387  00000+0  16983-3 0  9996
2 27597  98.7719 359.1663 0002159  81.7844 278.3582 14.29263883206329
H-2A R/B                
1 27601U 02056E   26040.92980178  .00000369  00000+0  14425-3 0  9991
2 27601  98.3150   2.3610 0069073 243.9681 166.1381 14.33740968210132
CZ-4B R/B               
1 28059U 03049C   26040.94495741  .00000568  00000+0  14187-3 0  9997
2 28059  98.6849  34.7682 0047400 317.4883  42.2646 14.54989567182563
CZ-2C R/B               
1 28222U 04012C   26040.88460454  .00049422  00000+0  57687-3 0  9990
2 28222  97.7303 103.6059 0015842  56.1056 304.1705 15.61333205199934
SL-16 R/B               
1 28353U 04021B   26040.94981588  .00000165  00000+0  11054-3 0  9997
2 28353  70.9997 290.7100 0002986  79.1342 281.0116 14.14590410118912
CZ-4B R/B               
1 28415U 04035C   26040.63347653  .00008834  00000+0  31529-3 0  9996
2 28415  97.3549  75.2178 0034101  69.4243 291.0649 15.28541757175623
CZ-2C R/B               
1 28480U 04046B   26040.78853388  .00000159  00000+0  74942-4 0  9992
2 28480  98.1994 317.5054 0138338 237.1651 121.6149 14.26982356104522
ARIANE 5 R/B            
1 28499U 04049H   26040.94374396  .00001100  00000+0  12722-3 0  9994
2 28499  98.2583 208.3716 0085494  81.2009 279.8875 14.85209246141672
CZ-2D R/B               
1 28738U 05024B   26040.59288769  .00037999  00000+0  51261-3 0  9999
2 28738  97.3623  54.7641 0007488 114.5274 245.6763 15.57680167135400
